[{"OBJECT_NAME":"TIANMU-1 14","OBJECT_ID":"2023-205D","EPOCH":"2026-03-09T23:38:37.144032","MEAN_MOTION":15.2583937,"ECCENTRICITY":0.00072842,"INCLINATION":97.35,"RA_OF_ASC_NODE":91.4174,"ARG_OF_PERICENTER":335.7472,"MEAN_ANOMALY":24.3423,"EPHEMERIS_TYPE":0,"CLASSIFICATION_TYPE":"U","NORAD_CAT_ID":58648,"ELEMENT_SET_NO":999,"REV_AT_EPOCH":12237,"BSTAR":0.00030290643,"MEAN_MOTION_DOT":7.686e-5,"MEAN_MOTION_DDOT":0},{"OBJECT_NAME":"YAOGAN-43 01C","OBJECT_ID":"2024-148C","EPOCH":"2026-03-09T10:59:35.487168","MEAN_MOTION":15.23248363,"ECCENTRICITY":0.00048948,"INCLINATION":35.0004,"RA_OF_ASC_NODE":69.8276,"ARG_OF_PERICENTER":10.3083,"MEAN_ANOMALY":349.7732,"EPHEMERIS_TYPE":0,"CLASSIFICATION_TYPE":"U","NORAD_CAT_ID":60460,"ELEMENT_SET_NO":999,"REV_AT_EPOCH":8692,"BSTAR":0.00057210581,"MEAN_MOTION_DOT":0.00013877,"MEAN_MOTION_DDOT":0}]
